KOMPSAT-3A              
1 40536U 15014A   17346.48494380  .00000575  00000-0  37042-4 0  9997
2 40536  97.4994 282.8282 0011291  83.5439  27.5981 15.12157568149995
